[{"OBJECT_NAME":"STARLINK-35323","OBJECT_ID":"2025-235P","EPOCH":"2026-03-09T19:25:15.541824","MEAN_MOTION":15.30182085,"ECCENTRICITY":0.00011974,"INCLINATION":53.1599,"RA_OF_ASC_NODE":244.4353,"ARG_OF_PERICENTER":81.9408,"MEAN_ANOMALY":278.1728,"EPHEMERIS_TYPE":0,"CLASSIFICATION_TYPE":"U","NORAD_CAT_ID":66071,"ELEMENT_SET_NO":999,"REV_AT_EPOCH":2294,"BSTAR":0.0013711625,"MEAN_MOTION_DOT":0.00040449,"MEAN_MOTION_DDOT":0},{"OBJECT_NAME":"OBJECT E","OBJECT_ID":"2024-018E","EPOCH":"2026-02-28T11:49:38.272512","MEAN_MOTION":14.54274509,"ECCENTRICITY":0.03649823,"INCLINATION":58.9635,"RA_OF_ASC_NODE":229.5952,"ARG_OF_PERICENTER":296.8367,"MEAN_ANOMALY":59.5785,"EPHEMERIS_TYPE":0,"CLASSIFICATION_TYPE":"U","NORAD_CAT_ID":65789,"ELEMENT_SET_NO":999,"REV_AT_EPOCH":9314,"BSTAR":0.0004744631,"MEAN_MOTION_DOT":4.754e-5,"MEAN_MOTION_DDOT":0}]
